*******************************************************************************
JPL/HORIZONS                    (2007 RH283)               2015-Jul-07 15:48:52
Rec #:558761 (+COV)   Soln.date: 2015-Jun-04_14:10:01     # obs: 49 (1983-2011)
 
FK5/J2000.0 helio. ecliptic osc. elements (au, days, deg., period=Julian yrs): 
 
  EPOCH=  2452915.5 ! 2003-Oct-03.00 (CT)          Residual RMS= .35448        
   EC= .3395187830581879   QR= 10.49160587590879   TP= 2448670.2803120501      
   OM= 286.5823097201427   W=  328.9531413571981   IN= 21.3652503884088        
   A= 15.88479067502853    MA= 66.08942894091842   ADIST= 21.27797547414826    
   PER= 63.31119           N= .015567964           ANGMOM= .064487691          
   DAN= 10.88691           DDN= 19.81855           L= 257.307122               
   B= -10.8296637          MOID= 9.495209689999999 TP= 1992-Feb-17.7803120501  
 
Asteroid physical parameters (km, seconds, rotational period in hours):        
   GM= n.a.                RAD= n.a.               ROTPER= n.a.                
   H= 8.5                  G= .150                 B-V= n.a.                   
                           ALBEDO= n.a.            STYP= n.a.                  
 
ASTEROID comments: 
1: soln ref.= JPL#3, OCC=1
2: source=ORB
*******************************************************************************
 
 
*******************************************************************************
Ephemeris / WWW_USER Tue Jul  7 15:48:52 2015 Pasadena, USA      / Horizons    
*******************************************************************************
Target body name: (2007 RH283)                    {source: JPL#3}
Center body name: Earth (399)                     {source: DE-0431LE-0431}
Center-site name: GEOCENTRIC
*******************************************************************************
Start time      : A.D. 1900-Jan-01 00:00:00.0000 UT      
Stop  time      : A.D. 2000-Jan-01 00:00:00.0000 UT      
Step-size       : 1440 minutes
*******************************************************************************
Target pole/equ : No model available
Target radii    : (unavailable)                                                
Center geodetic : 0.00000000,0.00000000,0.0000000 {E-lon(deg),Lat(deg),Alt(km)}
Center cylindric: 0.00000000,0.00000000,0.0000000 {E-lon(deg),Dxy(km),Dz(km)}
Center pole/equ : High-precision EOP model        {East-longitude +}
Center radii    : 6378.1 x 6378.1 x 6356.8 km     {Equator, meridian, pole}    
Target primary  : Sun
Vis. interferer : MOON (R_eq= 1737.400) km        {source: DE-0431LE-0431}
Rel. light bend : Sun, EARTH                      {source: DE-0431LE-0431}
Rel. lght bnd GM: 1.3271E+11, 3.9860E+05 km^3/s^2                              
Small-body perts: Yes                             {source: SB431-BIG16}
Atmos refraction: NO (AIRLESS)
RA format       : DEG
Time format     : BOTH
EOP file        : eop.150707.p150928                                           
EOP coverage    : DATA-BASED 1962-JAN-20 TO 2015-JUL-07. PREDICTS-> 2015-SEP-27
Units conversion: 1 au= 149597870.700 km, c= 299792.458 km/s, 1 day= 86400.0 s 
Table cut-offs 1: Elevation (-90.0deg=NO ),Airmass (>38.000=NO), Daylight (NO )
Table cut-offs 2: Solar Elongation (  0.0,180.0=NO ),Local Hour Angle( 0.0=NO )
Table format    : Comma Separated Values (spreadsheet)
*******************************************************************************
Initial FK5/J2000.0 heliocentric ecliptic osculating elements (au, days, deg.):
  EPOCH=  2452915.5 ! 2003-Oct-03.00 (CT)          Residual RMS= .35448        
   EC= .3395187830581879   QR= 10.49160587590879   TP= 2448670.2803120501      
   OM= 286.5823097201427   W=  328.9531413571981   IN= 21.3652503884088        
Asteroid physical parameters (km, seconds, rotational period in hours):        
   GM= n.a.                RAD= n.a.               ROTPER= n.a.                
   H= 8.5                  G= .150                 B-V= n.a.                   
                           ALBEDO= n.a.            STYP= n.a.                  
***********************************************************************************************************
 Date__(UT)__HR:MN, Date_________JDUT, , ,R.A._(ICRF/J2000.0), DEC_(ICRF/J2000.0),    ObsEcLon,   ObsEcLat,
***********************************************************************************************************
$$SOE
 1986-Jul-29 00:00, 2446640.500000000, , ,179.96945,-22.59318, 189.1799660,-20.6525936,
 1986-Jul-30 00:00, 2446641.500000000, , ,180.03816,-22.59726, 189.2431294,-20.6293066,
 1986-Jul-31 00:00, 2446642.500000000, , ,180.10778,-22.60199, 189.3074093,-20.6062515,
 1986-Aug-01 00:00, 2446643.500000000, , ,180.17832,-22.60737, 189.3727927,-20.5834330,
 1986-Aug-02 00:00, 2446644.500000000, , ,180.24974,-22.61340, 189.4392647,-20.5608557,
 1986-Aug-03 00:00, 2446645.500000000, , ,180.32205,-22.62007, 189.5068095,-20.5385242,
 1986-Aug-04 00:00, 2446646.500000000, , ,180.39523,-22.62739, 189.5754099,-20.5164432,
 1986-Aug-05 00:00, 2446647.500000000, , ,180.46926,-22.63536, 189.6450488,-20.4946171,
 1986-Aug-06 00:00, 2446648.500000000, , ,180.54414,-22.64397, 189.7157091,-20.4730501,
 1986-Aug-07 00:00, 2446649.500000000, , ,180.61984,-22.65323, 189.7873752,-20.4517466,
 1986-Aug-08 00:00, 2446650.500000000, , ,180.69636,-22.66312, 189.8600332,-20.4307106,
 1986-Aug-09 00:00, 2446651.500000000, , ,180.77368,-22.67365, 189.9336717,-20.4099460,
 1986-Aug-10 00:00, 2446652.500000000, , ,180.85179,-22.68482, 190.0082814,-20.3894564,
 1986-Aug-11 00:00, 2446653.500000000, , ,180.93066,-22.69662, 190.0838541,-20.3692453,
 1986-Aug-12 00:00, 2446654.500000000, , ,181.01030,-22.70906, 190.1603819,-20.3493159,
 1986-Aug-13 00:00, 2446655.500000000, , ,181.09067,-22.72211, 190.2378551,-20.3296713,
 1986-Aug-14 00:00, 2446656.500000000, , ,181.17177,-22.73579, 190.3162605,-20.3103143,
 1986-Aug-15 00:00, 2446657.500000000, , ,181.25358,-22.75009, 190.3955809,-20.2912473,
 1986-Aug-16 00:00, 2446658.500000000, , ,181.33608,-22.76500, 190.4757948,-20.2724728,
 1986-Aug-17 00:00, 2446659.500000000, , ,181.41928,-22.78053, 190.5568777,-20.2539931,
 1986-Aug-18 00:00, 2446660.500000000, , ,181.50314,-22.79666, 190.6388054,-20.2358103,
 1986-Aug-19 00:00, 2446661.500000000, , ,181.58765,-22.81339, 190.7215570,-20.2179267,
 1986-Aug-20 00:00, 2446662.500000000, , ,181.67282,-22.83072, 190.8051168,-20.2003446,
 1986-Aug-21 00:00, 2446663.500000000, , ,181.75861,-22.84866, 190.8894752,-20.1830663,
 1986-Aug-22 00:00, 2446664.500000000, , ,181.84503,-22.86718, 190.9746259,-20.1660943,
 1986-Aug-23 00:00, 2446665.500000000, , ,181.93206,-22.88630, 191.0605642,-20.1494313,
 1986-Aug-24 00:00, 2446666.500000000, , ,182.01968,-22.90601, 191.1472842,-20.1330799,
 1986-Aug-25 00:00, 2446667.500000000, , ,182.10788,-22.92630, 191.2347779,-20.1170429,
 1986-Aug-26 00:00, 2446668.500000000, , ,182.19666,-22.94718, 191.3230343,-20.1013230,
 1986-Aug-27 00:00, 2446669.500000000, , ,182.28599,-22.96863, 191.4120402,-20.0859231,
 1986-Aug-28 00:00, 2446670.500000000, , ,182.37587,-22.99067, 191.5017803,-20.0708460,
 1986-Aug-29 00:00, 2446671.500000000, , ,182.46628,-23.01328, 191.5922377,-20.0560944,
 1986-Aug-30 00:00, 2446672.500000000, , ,182.55720,-23.03646, 191.6833943,-20.0416709,
 1986-Aug-31 00:00, 2446673.500000000, , ,182.64863,-23.06020, 191.7752312,-20.0275783,
 1986-Sep-01 00:00, 2446674.500000000, , ,182.74054,-23.08451, 191.8677289,-20.0138192,
 1986-Sep-02 00:00, 2446675.500000000, , ,182.83293,-23.10938, 191.9608683,-20.0003960,
 1986-Sep-03 00:00, 2446676.500000000, , ,182.92578,-23.13481, 192.0546308,-19.9873114,
 1986-Sep-04 00:00, 2446677.500000000, , ,183.01907,-23.16079, 192.1489997,-19.9745675,
 1986-Sep-05 00:00, 2446678.500000000, , ,183.11279,-23.18731, 192.2439608,-19.9621667,
 1986-Sep-06 00:00, 2446679.500000000, , ,183.20691,-23.21438, 192.3395024,-19.9501111,
 1986-Sep-07 00:00, 2446680.500000000, , ,183.30144,-23.24198, 192.4356147,-19.9384024,
 1986-Sep-08 00:00, 2446681.500000000, , ,183.39634,-23.27011, 192.5322882,-19.9270423,
 1986-Sep-09 00:00, 2446682.500000000, , ,183.49161,-23.29877, 192.6295119,-19.9160324,
 1986-Sep-10 00:00, 2446683.500000000, , ,183.58722,-23.32794, 192.7272713,-19.9053739,
 1986-Sep-11 00:00, 2446684.500000000, , ,183.68316,-23.35763, 192.8255477,-19.8950679,
 1986-Sep-12 00:00, 2446685.500000000, , ,183.77942,-23.38783, 192.9243183,-19.8851153,
 1986-Sep-13 00:00, 2446686.500000000, , ,183.87598,-23.41853, 193.0235581,-19.8755170,
 1986-Sep-14 00:00, 2446687.500000000, , ,183.97283,-23.44973, 193.1232417,-19.8662738,
 1986-Sep-15 00:00, 2446688.500000000, , ,184.06994,-23.48141, 193.2233461,-19.8573866,
 1986-Sep-16 00:00, 2446689.500000000, , ,184.16731,-23.51358, 193.3238528,-19.8488560,
 1986-Sep-17 00:00, 2446690.500000000, , ,184.26493,-23.54623, 193.4247478,-19.8406832,
 1986-Sep-18 00:00, 2446691.500000000, , ,184.36278,-23.57935, 193.5260218,-19.8328690,
 1986-Sep-19 00:00, 2446692.500000000, , ,184.46084,-23.61295, 193.6276675,-19.8254148,
 1986-Sep-20 00:00, 2446693.500000000, , ,184.55911,-23.64701, 193.7296781,-19.8183217,
 1986-Sep-21 00:00, 2446694.500000000, , ,184.65756,-23.68153, 193.8320450,-19.8115911,
 1986-Sep-22 00:00, 2446695.500000000, , ,184.75619,-23.71650, 193.9347569,-19.8052244,
 1986-Sep-23 00:00, 2446696.500000000, , ,184.85499,-23.75193, 194.0378002,-19.7992231,
 1986-Sep-24 00:00, 2446697.500000000, , ,184.95393,-23.78781, 194.1411584,-19.7935887,
 1986-Sep-25 00:00, 2446698.500000000, , ,185.05300,-23.82412, 194.2448137,-19.7883225,
 1986-Sep-26 00:00, 2446699.500000000, , ,185.15219,-23.86088, 194.3487468,-19.7834262,
 1986-Sep-27 00:00, 2446700.500000000, , ,185.25148,-23.89806, 194.4529377,-19.7789010,
 1986-Sep-28 00:00, 2446701.500000000, , ,185.35087,-23.93567, 194.5573659,-19.7747484,
